STARLINK-2156
1 17742C 21017W   21326.11665051 -.00001157  00000-0 -77490-4 0  3265
2 17742  53.0552  43.2291 0001163  68.1429 169.6153 15.06411654    13
